INMARSAT GX5            
1 44801U 19080B   20021.12209994 -.00000179  00000-0  00000-0 0  9994
2 44801   0.0414 165.9192 0001852 195.8119 245.9470  1.00271428   636
JCSAT-18 (KACIFIC 1)    
1 44868U 19091A   20021.27903759 -.00000208  00000-0  00000-0 0  9998
2 44868   0.0380 250.3202 0002046  51.1365  69.1169  1.00268707   643
ELEKTRO-L 3             
1 44903U 19095A   20021.28148020 -.00000028  00000-0  00000-0 0  9995
2 44903   0.5125 282.3788 0027335  42.3176  58.7064  1.00626638   277
SHIJIAN-20 (SJ-20)      
1 44910U 19097A   20021.73729774 -.00000369  00000-0  00000+0 0  9993
2 44910   0.1064 288.4321 0006134  90.6960 123.2527  1.00264757   254
